[
    {
        "Altitude(m)": 617710.6475244497,
        "Argument of Periapsis(deg)": 0.0,
        "Eccentricity": 0.0,
        "Inclination(deg)": 60.0,
        "Latitude(deg)": -41.102681430204896,
        "Longitude(deg)": 34.96674093669013,
        "Mean Anomaly(deg)": -49.09089999999992,
        "RAAN(deg)": 165.0,
        "Satellite Name": "Test1 745",
        "Satellite Number": 745,
        "Semi-Major Axis(m)": 6980739.136638005,
        "Time(s)": 0
    },
    {
        "Altitude(m)": 617517.9455894704,
        "Argument of Periapsis(deg)": 0.00010418945913296404,
        "Eccentricity": 0.0,
        "Inclination(deg)": 60.0,
        "Latitude(deg)": -40.63688727582218,
        "Longitude(deg)": 35.46353288944296,
        "Mean Anomaly(deg)": -48.470793854538066,
        "RAAN(deg)": 164.99957995086024,
        "Satellite Name": "Test1 745",
        "Satellite Number": 745,
        "Semi-Major Axis(m)": 6980739.136638005,
        "Time(s)": 10
    }
]